[{"OBJECT_NAME":"STARLINK-1972","OBJECT_ID":"2021-012H","EPOCH":"2026-03-09T23:15:16.577568","MEAN_MOTION":15.46891946,"ECCENTRICITY":0.00038028,"INCLINATION":53.0542,"RA_OF_ASC_NODE":323.2416,"ARG_OF_PERICENTER":161.9616,"MEAN_ANOMALY":198.1527,"EPHEMERIS_TYPE":0,"CLASSIFICATION_TYPE":"U","NORAD_CAT_ID":47627,"ELEMENT_SET_NO":999,"REV_AT_EPOCH":28150,"BSTAR":0.001273526,"MEAN_MOTION_DOT":0.00065229,"MEAN_MOTION_DDOT":0},{"OBJECT_NAME":"COSMOS 1805","OBJECT_ID":"1986-097A","EPOCH":"2026-03-09T12:46:18.341472","MEAN_MOTION":15.47755838,"ECCENTRICITY":0.00042003,"INCLINATION":82.4567,"RA_OF_ASC_NODE":95.497,"ARG_OF_PERICENTER":123.064,"MEAN_ANOMALY":237.1014,"EPHEMERIS_TYPE":0,"CLASSIFICATION_TYPE":"U","NORAD_CAT_ID":17191,"ELEMENT_SET_NO":999,"REV_AT_EPOCH":14710,"BSTAR":0.00041008469,"MEAN_MOTION_DOT":0.00021311,"MEAN_MOTION_DDOT":0}]
